{"fetched_at":"2026-03-30T06:02:59Z","count":15439,"tles":[{"name":"STARLINK-35671","line1":"1 66392U 25257N   26087.79933182  .00019379  00000+0  66458-3 0  9992","line2":"2 66392  53.1574 127.9496 0001006  95.6761 264.4354 15.30205442 22662","category":"Starlink"}]}